STARLINK-35029;3.4;09:03:04;10;SSW;09:06:40;33;W;09:10:18;10;NNW;65445;1 65445U 25194M   26027.58675439  .00007358  00000-0  51347-3 0  9995;2 65445  97.6033 243.8912 0002251  85.7350 274.4134 15.05659403 23469
STARLINK-5615;3.7;09:03:07;10;WSW;09:07:22;89;SSE;09:11:38;10;ENE;55425;1 55425U 23014AL  26027.71464685 -.00000809  00000-0 -60011-4 0  9990;2 55425  70.0012 187.8034 0002578 269.4859  90.6005 14.98336369165429
STARLINK-36222;2.2;09:03:11;12;WNW;09:06:24;86;SSW;09:09:52;10;ESE;67097;1 67097U 25298Y   26027.66632934  .00087216  00000-0  19726-2 0  9992;2 67097  69.9993 123.0520 0002967 276.0826  84.0018 15.42712102  6949
STARLINK-5979;4.1;09:03:17;10;NNE;09:07:07;41;NW;09:10:55;10;SW;56345;1 56345U 23058AE  26027.50996504 -.00000720  00000-0 -51489-4 0  9998;2 56345  97.6036  29.9043 0001605 171.0096 189.1157 15.01271109151959
Cosmos 1025 Rocket;3.6;09:03:39;10;NNW;09:07:38;36;W;09:11:38;10;SSW;10974;1 10974U 78067B   26027.56954651  .00000848  00000-0  85290-4 0  9995;2 10974  82.4787  66.1805 0016172 351.9989   8.0969 14.89952065554281
STARLINK-35357;2.8;09:03:48;10;S;09:07:41;53;WSW;09:11:36;10;NNW;65799;1 65799U 25218J   26027.85319807  .00012734  00000-0  88491-3 0  9992;2 65799  97.6018 252.6833 0002208  71.8578 288.2889 15.05660388 18822
STARLINK-4471;4.3;09:04:18;10;SE;09:08:10;54;ENE;09:12:03;10;NNW;53664;1 53664U 22105S   26027.38780020 -.00009055  00000-0 -62500-3 0  9996;2 53664  97.6011 270.4692 0003449  79.3515 280.8100 15.05593631187081
STARLINK-34270;3.9;09:04:33;11;WNW;09:08:37;67;NNE;09:12:51;10;ESE;64355;1 64355U 25126M   26027.57846116  .00007070  00000-0  59960-3 0  9990;2 64355  70.0018 138.1208 0002530 267.6513  92.4356 14.98339815 35732
STARLINK-34458;3.9;09:04:47;11;WNW;09:08:51;67;NNE;09:13:06;10;ESE;64360;1 64360U 25126S   26027.57862109  .00008599  00000-0  72732-3 0  9995;2 64360  70.0012 138.1173 0003357 277.7970  82.2808 14.98343548 34523
STARLINK-35058;2.6;09:04:47;10;SSE;09:08:45;87;WSW;09:12:45;10;NNW;65394;1 65394U 25191R   26027.58793605  .00006656  00000-0  46499-3 0  9993;2 65394  97.6034 260.9963 0002093  85.8863 274.2602 15.05656513 24089
STARLINK-36189;3.2;09:05:39;10;SW;09:09:50;66;SE;09:14:03;10;ENE;67010;1 67010U 25293H   26026.83335647  .00038259  00000-0  31315-2 0  9992;2 67010  70.0005 199.8676 0003295 274.2377 356.2979 14.99125913  5915
Cosmos 1844;3.7;09:06:16;10;WNW;09:11:53;89;SW;09:17:30;10;SE;17973;1 17973U 87041A   26027.66852662 -.00000081  00000-0 -16788-4 0  9990;2 17973  70.8989 120.7027 0028493  83.7455 276.6911 14.14534794997781
STARLINK-36166;2.2;09:06:20;11;WNW;09:09:36;84;SW;09:13:05;10;SE;67084;1 67084U 25298K   26027.66849239  .00068830  00000-0  15628-2 0  9994;2 67084  69.9982 123.0592 0003041 279.1049  80.9788 15.42680404  6945
STARLINK-5085;4.0;09:06:43;10;WNW;09:10:51;59;N;09:15:04;10;E;55392;1 55392U 23014B   26027.44713879 -.00001491  00000-0 -11723-3 0  9998;2 55392  70.0013 148.3366 0002995 271.7272  88.3544 14.98319146166372
STARLINK-34932;2.6;09:06:46;10;SSE;09:10:44;90;WSW;09:14:43;10;NNW;65179;1 65179U 25175F   26027.58929114  .00010395  00000-0  72340-3 0  9991;2 65179  97.6035 262.1111 0002168  89.6315 270.5160 15.05656561 26451
STARLINK-5886;4.0;09:06:48;10;NNE;09:10:32;40;NW;09:14:16;10;SW;56350;1 56350U 23058AK  26027.51512374 -.00000119  00000-0 -40492-5 0  9999;2 56350  97.6047  30.6689 0001814  89.1273 271.0162 15.05647549152003
SeaSat 1;4.3;09:06:57;10;NE;09:11:29;36;ESE;09:16:00;10;S;10967;1 10967U 78064A   26027.75319698  .00000645  00000-0  21869-3 0  9997;2 10967 108.0169  39.5874 0001312 288.0677  72.0326 14.46122698500593
STARLINK-34514;3.7;09:07:00;10;WSW;09:11:14;70;NNW;09:15:29;10;ENE;64416;1 64416U 25129E   26027.44956623  .00005981  00000-0  50841-3 0  9990;2 64416  70.0023 178.2956 0004238 290.8661  69.2044 14.98341078 35112
STARLINK-35039;3.5;09:07:06;10;SSW;09:10:39;31;W;09:14:14;10;NNW;65451;1 65451U 25194T   26027.85535693  .00007733  00000-0  53944-3 0  9991;2 65451  97.6037 244.1506 0002492  88.1271 272.0241 15.05654356 23509
IRS-1D;4.1;09:07:36;10;NNE;09:12:29;38;NW;09:17:20;10;WSW;24971;1 24971U 97057A   26027.47055104  .00000468  00000-0  17657-3 0  9991;2 24971  98.8343  18.4158 0051095 282.5577  76.9896 14.35446428482429
STARLINK-4622;4.2;09:07:39;10;SE;09:11:38;60;ENE;09:15:38;10;NNW;53648;1 53648U 22105A   26026.65398205  .00000637  00000-0  54165-4 0  9991;2 53648  97.6027 269.0522 0000555 103.5345 256.5941 15.01255614186930
STARLINK-35406;2.9;09:07:45;10;S;09:11:37;50;WSW;09:15:31;10;NNW;65795;1 65795U 25218E   26027.85594556  .00008790  00000-0  61246-3 0  9990;2 65795  97.6013 252.6802 0002612  85.6598 274.4927 15.05659294 18827
STARLINK-4388;4.2;09:08:02;10;SE;09:11:55;57;ENE;09:15:50;10;NNW;53651;1 53651U 22105D   26027.25758413  .00014854  00000-0  10312-2 0  9993;2 53651  97.6011 270.3843 0002881 105.2129 254.9416 15.05657198187062
STARLINK-5837;4.2;09:08:36;10;NNE;09:12:23;38;NW;09:16:08;10;WSW;56346;1 56346U 23058AF  26027.51367140  .00000214  00000-0  21164-4 0  9991;2 56346  97.6036  29.9001 0001013 107.5683 252.5652 15.01262364151951
STARLINK-35094;2.6;09:08:44;10;SSE;09:12:42;82;WSW;09:16:42;10;NNW;65395;1 65395U 25191S   26027.52424789  .00013052  00000-0  90678-3 0  9998;2 65395  97.6032 260.9272 0002648  84.8849 275.2680 15.05661357 24089
STARLINK-35882;2.2;09:09:11;11;WNW;09:12:31;82;SSW;09:15:59;10;SE;67088;1 67088U 25298P   26027.54079319  .00017647  00000-0  40518-3 0  9996;2 67088  69.9994 123.4191 0002987 256.3850 103.6999 15.42730832  6922
CZ-2D R/B;2.7;09:09:40;10;NNE;09:12:45;60;WNW;09:15:48;10;SW;28738;1 28738U 05024B   26027.48307968  .00045385  00000-0  63825-3 0  9993;2 28738  97.3629  41.2338 0006125 148.1068 212.0559 15.56532901133366
Landsat 7;3.8;09:10:30;10;NNE;09:15:07;61;WNW;09:19:43;10;SW;25682;1 25682U 99020A   26027.85561522  .00000904  00000-0  18191-3 0  9990;2 25682  97.8596  37.9285 0001473 102.6492  18.2176 14.63766146425316
STARLINK-34243;3.9;09:10:33;10;WNW;09:14:46;69;NNE;09:19:01;10;ESE;64361;1 64361U 25126T   26027.51587398  .00014973  00000-0  12595-2 0  9997;2 64361  70.0017 138.3033 0003181 278.6986  81.3813 14.98344158 34511
STARLINK-34942;2.6;09:10:43;10;SSE;09:14:41;85;WSW;09:18:41;10;NNW;65181;1 65181U 25175H   26027.59205950  .00009140  00000-0  63668-3 0  9999;2 65181  97.6032 262.1068 0002771  87.9074 272.2470 15.05656379 26422
STARLINK-5955;4.1;09:10:46;10;NNE;09:14:29;38;NW;09:18:10;10;WSW;56342;1 56342U 23058AB  26027.71727056 -.00000403  00000-0 -23747-4 0  9996;2 56342  97.6039  30.8605 0002106  87.1537 272.9930 15.05644988152031
STARLINK-5605;3.9;09:11:00;10;W;09:15:11;60;N;09:19:24;10;ENE;55411;1 55411U 23014W   26027.65183901  .00000134  00000-0  18998-4 0  9993;2 55411  70.0006 168.1177 0002657 268.6216  91.4639 14.98342617165901
STARLINK-35049;3.6;09:11:07;10;SSW;09:14:37;29;W;09:18:09;10;NNW;65444;1 65444U 25194L   26027.52583230  .00008939  00000-0  62274-3 0  9992;2 65444  97.6040 243.8192 0002814  86.4627 273.6921 15.05659704 23454
STARLINK-36209;3.1;09:11:27;10;SW;09:15:39;70;SE;09:19:52;10;ENE;67022;1 67022U 25293V   26027.72126616  .00007191  00000-0  59733-3 0  9994;2 67022  70.0016 197.6480 0002778 273.5084  86.5758 14.99134021  8754
STARLINK-5888;4.2;09:11:35;10;NNE;09:15:21;37;NW;09:19:05;10;WSW;56348;1 56348U 23058AH  26027.51576483  .00000235  00000-0  22795-4 0  9999;2 56348  97.6036  29.8983 0001124 116.8373 243.2966 15.01259961151957
STARLINK-36123;3.1;09:11:39;10;SW;09:15:52;70;SE;09:20:06;10;ENE;67007;1 67007U 25293E   26027.83335647  .00035184  00000-0  29427-2 0  9994;2 67007  70.0003 197.3661 0002219 268.5657 337.3194 14.98317871  5899
STARLINK-35273;3.0;09:11:45;10;S;09:15:35;47;W;09:19:27;10;NNW;65805;1 65805U 25218Q   26027.85871478  .00007388  00000-0  51562-3 0  9995;2 65805  97.6018 252.6762 0002763  81.1277 279.0262 15.05655889 18820
STARLINK-4617;4.1;09:12:01;10;SE;09:15:55;60;ENE;09:19:50;10;NNW;53675;1 53675U 22105AD  26027.26037278  .00000408  00000-0  32508-4 0  9992;2 53675  97.6024 270.4500 0002327  86.5647 273.5845 15.05647013187073
Cosmos 304 Rocket;4.1;09:12:08;10;W;09:16:45;48;NNW;09:21:24;10;NE;4139;1 04139U 69091B   26027.49973340  .00001363  00000-0  25201-3 0  9994;2 04139  74.0303 184.4666 0005504 206.4481 153.6408 14.66403547989092
STARLINK-35012;2.6;09:12:41;10;SSE;09:16:39;78;WSW;09:20:39;10;NNW;65384;1 65384U 25191F   26027.59347396  .00008155  00000-0  56859-3 0  9992;2 65384  97.6031 260.9902 0002220  84.0567 276.0912 15.05657195 24083
STARLINK-36106;3.1;09:13:09;10;SW;09:17:20;71;SE;09:21:34;10;ENE;67018;1 67018U 25293R   26027.52226030  .00005901  00000-0  49143-3 0  9999;2 67018  70.0028 198.1579 0002204 274.1108  85.9799 14.99153528  8723
STARLINK-34487;3.7;09:13:09;10;WSW;09:17:23;68;NNW;09:21:38;10;ENE;64417;1 64417U 25129F   26027.52049845  .00010272  00000-0  86696-3 0  9995;2 64417  70.0004 178.1334 0002802 264.8137  95.2702 14.98351297 35063
STARLINK-34507;3.7;09:13:25;10;WSW;09:17:39;68;NNW;09:21:53;10;ENE;64437;1 64437U 25129AB  26027.52066398  .00003085  00000-0  26621-3 0  9995;2 64437  70.0008 178.1330 0002751 270.7570  89.3274 14.98337174 35128
STARLINK-5552;4.2;09:13:53;10;NNE;09:17:37;36;NW;09:21:20;10;WSW;56339;1 56339U 23058Y   26027.71733223  .00000773  00000-0  64701-4 0  9998;2 56339  97.6039  30.0915 0001616  92.1524 267.9886 15.01264671151980
STARLINK-34929;2.6;09:14:39;10;SSE;09:18:38;81;WSW;09:22:37;10;NNW;65178;1 65178U 25175E   26027.59482748  .00008944  00000-0  62311-3 0  9992;2 65178  97.6033 262.1027 0002576  93.1973 266.9549 15.05657674 26453
STARLINK-5984;4.2;09:14:44;10;NNE;09:18:24;37;NW;09:22:03;10;WSW;56329;1 56329U 23058N   26027.72003892 -.00000322  00000-0 -18130-4 0  9997;2 56329  97.6037  30.8568 0002498  91.2770 268.8743 15.05644286152038
STARLINK-5068;3.7;09:15:30;10;WSW;09:19:45;84;NNW;09:24:00;10;ENE;55423;1 55423U 23014AJ  26027.72302905  .00025807  00000-0  21654-2 0  9996;2 55423  70.0014 187.8301 0002026 270.5826  89.5101 14.98282344165428
